[{"OBJECT_NAME":"STARLINK-30095","OBJECT_ID":"2023-056D","EPOCH":"2026-03-09T22:00:01.999584","MEAN_MOTION":15.26748079,"ECCENTRICITY":0.00011913,"INCLINATION":43.003,"RA_OF_ASC_NODE":181.6942,"ARG_OF_PERICENTER":278.916,"MEAN_ANOMALY":30.7341,"EPHEMERIS_TYPE":0,"CLASSIFICATION_TYPE":"U","NORAD_CAT_ID":56289,"ELEMENT_SET_NO":999,"REV_AT_EPOCH":578,"BSTAR":0.00026116241,"MEAN_MOTION_DOT":6.754e-5,"MEAN_MOTION_DDOT":0},{"OBJECT_NAME":"SITRO-AIS 8 (ANOKHIN)","OBJECT_ID":"2023-091AD","EPOCH":"2026-03-09T23:44:40.058592","MEAN_MOTION":15.29359179,"ECCENTRICITY":0.0012509,"INCLINATION":97.5169,"RA_OF_ASC_NODE":133.2823,"ARG_OF_PERICENTER":92.0171,"MEAN_ANOMALY":268.2501,"EPHEMERIS_TYPE":0,"CLASSIFICATION_TYPE":"U","NORAD_CAT_ID":57193,"ELEMENT_SET_NO":999,"REV_AT_EPOCH":14927,"BSTAR":0.00064982524,"MEAN_MOTION_DOT":0.00018494,"MEAN_MOTION_DDOT":0}]
